OBJECT_NAME,OBJECT_ID,EPOCH,MEAN_MOTION,ECCENTRICITY,INCLINATION,RA_OF_ASC_NODE,ARG_OF_PERICENTER,MEAN_ANOMALY,EPHEMERIS_TYPE,CLASSIFICATION_TYPE,NORAD_CAT_ID,ELEMENT_SET_NO,REV_AT_EPOCH,BSTAR,MEAN_MOTION_DOT,MEAN_MOTION_DDOT
ONEWEB-0597,2022-166X,2026-07-17T02:41:20.328576,13.21824174,.0001957,87.9233,238.0311,95.8080,264.3277,0,U,54663,999,17549,.4029E-4,.3E-6,0
ONEWEB-0600,2022-166Y,2026-07-17T02:14:42.932544,13.21825875,.00019758,87.9232,238.0266,101.0447,259.0910,0,U,54664,999,17546,-.19531199E-4,.5E-7,0
ONEWEB-0601,2022-166Z,2026-07-17T12:56:36.519648,13.21825312,.0001797,87.9229,237.9535,94.6402,265.4937,0,U,54665,999,17571,.54518E-4,.36E-6,0
ONEWEB-0602,2022-166AA,2026-07-17T19:22:56.879328,13.21851522,.00021695,87.9229,237.9059,103.5596,256.5779,0,U,54666,999,17559,-.13441616E-1,-.5537E-4,0
ONEWEB-0603,2022-166AB,2026-07-17T01:21:23.912928,13.21823667,.000199,87.9239,238.0157,95.8144,264.3217,0,U,54667,999,17542,.20653E-4,.22E-6,0
ONEWEB-0604,2022-166AC,2026-07-17T19:14:28.276224,13.21823833,.00021386,87.9242,237.8831,96.2399,263.8978,0,U,54668,999,17548,-.74466979E-4,-.18E-6,0
ONEWEB-0605,2022-166AD,2026-07-17T02:43:45.318144,13.21824751,.0001859,87.9232,238.0310,78.4892,281.6450,0,U,54669,999,17546,.22061E-4,.22E-6,0
ONEWEB-0606,2022-166AE,2026-07-17T01:26:14.839872,13.21825460,.00021962,87.9232,238.0538,98.7621,261.3761,0,U,54670,999,17551,.20217879E-3,.97E-6,0
ONEWEB-0607,2022-166AF,2026-07-17T13:20:50.488224,13.21825698,.0001907,87.9237,237.9280,97.1398,262.9952,0,U,54671,999,17555,-.12435E-3,-.38E-6,0
ONEWEB-0608,2022-166AG,2026-07-17T13:30:30.079296,13.21823997,.0001677,87.9244,237.9244,86.5595,273.5730,0,U,54672,999,17556,-.13778E-3,-.44E-6,0
ONEWEB-0610,2022-166AH,2026-07-17T02:07:26.750784,13.21825808,.00014417,87.9231,238.0299,94.3425,265.7873,0,U,54673,999,17540,.47398765E-4,.33E-6,0
ONEWEB-0611,2022-166AJ,2026-07-17T12:51:44.180928,13.21826333,.0002205,87.9229,237.9364,96.1446,263.9939,0,U,54674,999,17545,.8452E-4,.48E-6,0
ONEWEB-0612,2022-166AK,2026-07-17T02:17:07.317312,13.21826811,.00019106,87.9245,238.0231,94.0993,266.0359,0,U,54675,999,17538,.67175288E-4,.41E-6,0
ONEWEB-0615,2022-166AL,2026-07-17T12:42:03.692160,13.21823751,.0002249,87.9229,237.9490,101.1282,259.0105,0,U,54676,999,17545,.20556E-3,.98E-6,0
ONEWEB-0655,2022-166AM,2026-07-17T01:14:08.105280,13.21824350,.00019444,87.9231,238.0447,101.0977,259.0375,0,U,54677,999,17538,.17209919E-3,.84E-6,0
ONEWEB-0659,2022-166AN,2026-07-17T01:38:21.816384,13.21824709,.00021249,87.9228,238.0410,94.1416,265.9961,0,U,54678,999,17547,.13424305E-3,.68E-6,0
ONEWEB-0685,2022-166AP,2026-07-17T01:37:46.522848,13.21848617,.00017276,87.9227,238.0324,91.2680,268.8652,0,U,54679,999,17536,.15263639E-3,.76E-6,0
ONEWEB-0712,2022-166AQ,2026-07-17T07:21:47.068128,13.16596111,.0001901,87.9083,222.7918,107.4652,252.6687,0,U,54680,999,17602,.72331E-4,.41E-6,0
ONEWEB-0714,2022-166AR,2026-07-17T12:39:39.845664,13.21825536,.0002095,87.9230,237.9390,103.9589,256.1778,0,U,54681,999,17554,.73827E-4,.44E-6,0
ONEWEB-0532,2023-004A,2026-07-17T20:42:07.939296,13.17648931,.00019189,87.9145,359.7612,82.2347,277.9003,0,U,55140,999,17162,-.194987E-5,.12E-6,0
ONEWEB-0533,2023-004B,2026-07-17T21:01:29.631360,13.12441297,.00016627,87.8970,344.5683,98.0185,262.1132,0,U,55141,999,17208,-.21941133E-3,-.66E-6,0
ONEWEB-0541,2023-004C,2026-07-17T22:19:04.110816,13.11418032,.00020227,87.8892,14.9384,88.5024,271.6336,0,U,55142,999,16997,.98938004E-3,.363E-5,0
ONEWEB-0543,2023-004D,2026-07-17T21:27:08.684928,13.18686755,.00019262,87.9190,329.3617,106.5102,253.6242,0,U,55143,999,17374,-.14346708E-3,-.44E-6,0
ONEWEB-0544,2023-004E,2026-07-17T21:17:25.530720,13.18687238,.00020801,87.9191,329.3627,102.8247,257.3118,0,U,55144,999,17374,.12000848E-4,.18E-6,0
ONEWEB-0560,2023-004F,2026-07-17T21:07:43.704480,13.18684656,.0002125,87.9191,329.3540,104.4112,255.7256,0,U,55145,999,17375,.46650515E-4,.31E-6,0
ONEWEB-0565,2023-004G,2026-07-17T20:58:00.926976,13.18686807,.00022963,87.9181,329.3802,94.0028,266.1367,0,U,55146,999,17374,.72673218E-4,.42E-6,0
ONEWEB-0567,2023-004H,2026-07-17T20:48:17.645760,13.18687384,.00022593,87.9190,329.3684,98.3895,261.7493,0,U,55147,999,17374,.87520345E-4,.47E-6,0
ONEWEB-0569,2023-004J,2026-07-17T20:38:28.361472,13.13475331,.00027302,87.8984,314.1183,114.0079,246.1336,0,U,55148,999,17420,.46550105E-2,.1713E-4,0
ONEWEB-0570,2023-004K,2026-07-17T20:36:09.366336,13.18686750,.00020124,87.9188,329.3677,86.8055,273.3307,0,U,55149,999,17373,.11043866E-3,.56E-6,0
ONEWEB-0571,2023-004L,2026-07-17T22:15:43.617024,13.18686559,.00031766,87.9191,329.3531,98.4502,261.6991,0,U,55150,999,17375,.1517866E-3,.73E-6,0
