ONEWEB-0597             
1 54663U 22166X   26198.11204084  .00000030  00000+0  40290-4 0  9998
2 54663  87.9233 238.0311 0001957  95.8080 264.3277 13.21824174175498
ONEWEB-0600             
1 54664U 22166Y   26198.09355246  .00000005  00000+0 -19531-4 0  9990
2 54664  87.9232 238.0266 0001975 101.0447 259.0910 13.21825875175465
ONEWEB-0601             
1 54665U 22166Z   26198.53931157  .00000036  00000+0  54518-4 0  9998
2 54665  87.9229 237.9535 0001797  94.6402 265.4937 13.21825312175713
ONEWEB-0602             
1 54666U 22166AA  26198.80760277 -.00005537  00000+0 -13442-1 0  9993
2 54666  87.9229 237.9059 0002169 103.5596 256.5779 13.21851522175596
ONEWEB-0603             
1 54667U 22166AB  26198.05652677  .00000022  00000+0  20653-4 0  9992
2 54667  87.9239 238.0157 0001990  95.8144 264.3217 13.21823667175427
ONEWEB-0604             
1 54668U 22166AC  26198.80171616 -.00000018  00000+0 -74467-4 0  9994
2 54668  87.9242 237.8831 0002138  96.2399 263.8978 13.21823833175489
ONEWEB-0605             
1 54669U 22166AD  26198.11371896  .00000022  00000+0  22061-4 0  9997
2 54669  87.9232 238.0310 0001859  78.4892 281.6450 13.21824751175464
ONEWEB-0606             
1 54670U 22166AE  26198.05989398  .00000097  00000+0  20218-3 0  9997
2 54670  87.9232 238.0538 0002196  98.7621 261.3761 13.21825460175512
ONEWEB-0607             
1 54671U 22166AF  26198.55613991 -.00000038  00000+0 -12435-3 0  9995
2 54671  87.9237 237.9280 0001907  97.1398 262.9952 13.21825698175559
ONEWEB-0608             
1 54672U 22166AG  26198.56284814 -.00000044  00000+0 -13778-3 0  9993
2 54672  87.9244 237.9244 0001677  86.5595 273.5730 13.21823997175566
ONEWEB-0610             
1 54673U 22166AH  26198.08850406  .00000033  00000+0  47399-4 0  9990
2 54673  87.9231 238.0299 0001441  94.3425 265.7873 13.21825808175400
ONEWEB-0611             
1 54674U 22166AJ  26198.53592802  .00000048  00000+0  84520-4 0  9997
2 54674  87.9229 237.9364 0002205  96.1446 263.9939 13.21826333175453
ONEWEB-0612             
1 54675U 22166AK  26198.09522358  .00000041  00000+0  67175-4 0  9998
2 54675  87.9245 238.0231 0001910  94.0993 266.0359 13.21826811175386
ONEWEB-0615             
1 54676U 22166AL  26198.52920940  .00000098  00000+0  20556-3 0  9999
2 54676  87.9229 237.9490 0002249 101.1282 259.0105 13.21823751175450
ONEWEB-0655             
1 54677U 22166AM  26198.05148270  .00000084  00000+0  17210-3 0  9994
2 54677  87.9231 238.0447 0001944 101.0977 259.0375 13.21824350175386
ONEWEB-0659             
1 54678U 22166AN  26198.06830806  .00000068  00000+0  13424-3 0  9994
2 54678  87.9228 238.0410 0002124  94.1416 265.9961 13.21824709175479
ONEWEB-0685             
1 54679U 22166AP  26198.06789957  .00000076  00000+0  15264-3 0  9998
2 54679  87.9227 238.0324 0001727  91.2680 268.8652 13.21848617175363
ONEWEB-0712             
1 54680U 22166AQ  26198.30679477  .00000041  00000+0  72331-4 0  9993
2 54680  87.9083 222.7918 0001901 107.4652 252.6687 13.16596111176023
ONEWEB-0714             
1 54681U 22166AR  26198.52754451  .00000044  00000+0  73827-4 0  9998
2 54681  87.9230 237.9390 0002095 103.9589 256.1778 13.21825536175543
ONEWEB-0532             
1 55140U 23004A   26198.86259189  .00000012  00000+0 -19499-5 0  9998
2 55140  87.9145 359.7612 0001918  82.2347 277.9003 13.17648931171627
ONEWEB-0533             
1 55141U 23004B   26198.87603740 -.00000066  00000+0 -21941-3 0  9999
2 55141  87.8970 344.5683 0001662  98.0185 262.1132 13.12441297172085
ONEWEB-0541             
1 55142U 23004C   26198.92990869  .00000363  00000+0  98938-3 0  9995
2 55142  87.8892  14.9384 0002022  88.5024 271.6336 13.11418032169977
ONEWEB-0543             
1 55143U 23004D   26198.89385052 -.00000044  00000+0 -14347-3 0  9994
2 55143  87.9190 329.3617 0001926 106.5102 253.6242 13.18686755173744
ONEWEB-0544             
1 55144U 23004E   26198.88710105  .00000018  00000+0  12001-4 0  9990
2 55144  87.9191 329.3627 0002080 102.8247 257.3118 13.18687238173748
ONEWEB-0560             
1 55145U 23004F   26198.88036695  .00000031  00000+0  46651-4 0  9999
2 55145  87.9191 329.3540 0002125 104.4112 255.7256 13.18684656173759
ONEWEB-0565             
1 55146U 23004G   26198.87362184  .00000042  00000+0  72673-4 0  9999
2 55146  87.9181 329.3802 0002296  94.0028 266.1367 13.18686807173747
ONEWEB-0567             
1 55147U 23004H   26198.86687090  .00000047  00000+0  87520-4 0  9997
2 55147  87.9190 329.3684 0002259  98.3895 261.7493 13.18687384173746
ONEWEB-0569             
1 55148U 23004J   26198.86005048  .00001713  00000+0  46550-2 0  9992
2 55148  87.8984 314.1183 0002730 114.0079 246.1336 13.13475331174204
ONEWEB-0570             
1 55149U 23004K   26198.85844174  .00000056  00000+0  11044-3 0  9993
2 55149  87.9188 329.3677 0002012  86.8055 273.3307 13.18686750173732
ONEWEB-0571             
1 55150U 23004L   26198.92758816  .00000073  00000+0  15179-3 0  9992
2 55150  87.9191 329.3531 0003176  98.4502 261.6991 13.18686559173753
